KUIPER-00008            
1 63724U 25088A   25243.27578893  .00007249  00000+0  61358-3 0  9997
2 63724  51.8892 235.1310 0010763 174.6328 185.4759 14.98912897 19490
KUIPER-00009            
1 63725U 25088B   25243.25001157 -.00005012  00000+0 -62855-3 0  9991
2 63725  51.9008 228.7259 0012270 190.6816   1.7582 14.79873827  4896
KUIPER-00010            
1 63726U 25088C   25243.19856169  .00027037  00000+0  74419-3 0  9994
2 63726  51.8628 218.6810 0008515 189.3514 170.7315 15.36938846 19335
KUIPER-00011            
1 63727U 25088D   25243.25001157 -.01342204  00000+0 -59943-1 0  9993
2 63727  51.8640 219.3502 0008709 193.8183 294.3471 15.23986351  5020
KUIPER-00012            
1 63728U 25088E   25243.23102211  .00026037  00000+0  72287-3 0  9993
2 63728  51.8548 218.7924 0009661 200.2172 159.8433 15.36681140 19422
KUIPER-00013            
1 63729U 25088F   25243.21092487 -.00056635  00000+0 -75483-2 0  9994
2 63729  51.9014 230.3430 0008534 129.1716 231.0006 14.79423606 19364
KUIPER-00014            
1 63730U 25088G   25243.27903610  .00002201  00000+0  31842-3 0  9991
2 63730  51.9012 231.0280 0008138 179.0699 181.0279 14.79846853 19177
KUIPER-00015            
1 63731U 25088H   25243.29760020  .00000922  00000+0  14588-3 0  9996
2 63731  51.8985 243.1412 0010503 167.0363 193.0872 14.81226633 19466
