<?xml version="1.0" encoding="UTF-8"?>
<ndm xmlns:xsi="http://www.w3.org/2001/XMLSchema-instance" xsi:noNamespaceSchemaLocation="https://sanaregistry.org/r/ndmxml_unqualified/ndmxml-2.0.0-master-2.0.xsd">
<omm id="CCSDS_OMM_VERS" version="2.0">
<header><CREATION_DATE/><ORIGINATOR/></header><body><segment><metadata><OBJECT_NAME>KUIPER-00008</OBJECT_NAME><OBJECT_ID>2025-088A</OBJECT_ID><CENTER_NAME>EARTH</CENTER_NAME><REF_FRAME>TEME</REF_FRAME><TIME_SYSTEM>UTC</TIME_SYSTEM><MEAN_ELEMENT_THEORY>SGP4</MEAN_ELEMENT_THEORY></metadata><data><meanElements><EPOCH>2025-08-31T06:37:08.163552</EPOCH><MEAN_MOTION>14.98912897</MEAN_MOTION><ECCENTRICITY>.00107634</ECCENTRICITY><INCLINATION>51.8892</INCLINATION><RA_OF_ASC_NODE>235.1310</RA_OF_ASC_NODE><ARG_OF_PERICENTER>174.6328</ARG_OF_PERICENTER><MEAN_ANOMALY>185.4759</MEAN_ANOMALY></meanElements><tleParameters><EPHEMERIS_TYPE>0</EPHEMERIS_TYPE><CLASSIFICATION_TYPE>U</CLASSIFICATION_TYPE><NORAD_CAT_ID>63724</NORAD_CAT_ID><ELEMENT_SET_NO>999</ELEMENT_SET_NO><REV_AT_EPOCH>1949</REV_AT_EPOCH><BSTAR>.61358371E-3</BSTAR><MEAN_MOTION_DOT>.7249E-4</MEAN_MOTION_DOT><MEAN_MOTION_DDOT>0</MEAN_MOTION_DDOT></tleParameters></data></segment></body></omm>
<omm id="CCSDS_OMM_VERS" version="2.0">
<header><CREATION_DATE/><ORIGINATOR/></header><body><segment><metadata><OBJECT_NAME>KUIPER-00009</OBJECT_NAME><OBJECT_ID>2025-088B</OBJECT_ID><CENTER_NAME>EARTH</CENTER_NAME><REF_FRAME>TEME</REF_FRAME><TIME_SYSTEM>UTC</TIME_SYSTEM><MEAN_ELEMENT_THEORY>SGP4</MEAN_ELEMENT_THEORY></metadata><data><meanElements><EPOCH>2025-08-31T06:00:00.999648</EPOCH><MEAN_MOTION>14.79873827</MEAN_MOTION><ECCENTRICITY>.00122706</ECCENTRICITY><INCLINATION>51.9008</INCLINATION><RA_OF_ASC_NODE>228.7259</RA_OF_ASC_NODE><ARG_OF_PERICENTER>190.6816</ARG_OF_PERICENTER><MEAN_ANOMALY>1.7582</MEAN_ANOMALY></meanElements><tleParameters><EPHEMERIS_TYPE>0</EPHEMERIS_TYPE><CLASSIFICATION_TYPE>U</CLASSIFICATION_TYPE><NORAD_CAT_ID>63725</NORAD_CAT_ID><ELEMENT_SET_NO>999</ELEMENT_SET_NO><REV_AT_EPOCH>489</REV_AT_EPOCH><BSTAR>-.62855122E-3</BSTAR><MEAN_MOTION_DOT>-.5012E-4</MEAN_MOTION_DOT><MEAN_MOTION_DDOT>0</MEAN_MOTION_DDOT></tleParameters></data></segment></body></omm>
<omm id="CCSDS_OMM_VERS" version="2.0">
<header><CREATION_DATE/><ORIGINATOR/></header><body><segment><metadata><OBJECT_NAME>KUIPER-00010</OBJECT_NAME><OBJECT_ID>2025-088C</OBJECT_ID><CENTER_NAME>EARTH</CENTER_NAME><REF_FRAME>TEME</REF_FRAME><TIME_SYSTEM>UTC</TIME_SYSTEM><MEAN_ELEMENT_THEORY>SGP4</MEAN_ELEMENT_THEORY></metadata><data><meanElements><EPOCH>2025-08-31T04:45:55.730016</EPOCH><MEAN_MOTION>15.36938846</MEAN_MOTION><ECCENTRICITY>.00085155</ECCENTRICITY><INCLINATION>51.8628</INCLINATION><RA_OF_ASC_NODE>218.6810</RA_OF_ASC_NODE><ARG_OF_PERICENTER>189.3514</ARG_OF_PERICENTER><MEAN_ANOMALY>170.7315</MEAN_ANOMALY></meanElements><tleParameters><EPHEMERIS_TYPE>0</EPHEMERIS_TYPE><CLASSIFICATION_TYPE>U</CLASSIFICATION_TYPE><NORAD_CAT_ID>63726</NORAD_CAT_ID><ELEMENT_SET_NO>999</ELEMENT_SET_NO><REV_AT_EPOCH>1933</REV_AT_EPOCH><BSTAR>.74418742E-3</BSTAR><MEAN_MOTION_DOT>.27037E-3</MEAN_MOTION_DOT><MEAN_MOTION_DDOT>0</MEAN_MOTION_DDOT></tleParameters></data></segment></body></omm>
<omm id="CCSDS_OMM_VERS" version="2.0">
<header><CREATION_DATE/><ORIGINATOR/></header><body><segment><metadata><OBJECT_NAME>KUIPER-00011</OBJECT_NAME><OBJECT_ID>2025-088D</OBJECT_ID><CENTER_NAME>EARTH</CENTER_NAME><REF_FRAME>TEME</REF_FRAME><TIME_SYSTEM>UTC</TIME_SYSTEM><MEAN_ELEMENT_THEORY>SGP4</MEAN_ELEMENT_THEORY></metadata><data><meanElements><EPOCH>2025-08-31T06:00:00.999648</EPOCH><MEAN_MOTION>15.23986351</MEAN_MOTION><ECCENTRICITY>.00087097</ECCENTRICITY><INCLINATION>51.8640</INCLINATION><RA_OF_ASC_NODE>219.3502</RA_OF_ASC_NODE><ARG_OF_PERICENTER>193.8183</ARG_OF_PERICENTER><MEAN_ANOMALY>294.3471</MEAN_ANOMALY></meanElements><tleParameters><EPHEMERIS_TYPE>0</EPHEMERIS_TYPE><CLASSIFICATION_TYPE>U</CLASSIFICATION_TYPE><NORAD_CAT_ID>63727</NORAD_CAT_ID><ELEMENT_SET_NO>999</ELEMENT_SET_NO><REV_AT_EPOCH>502</REV_AT_EPOCH><BSTAR>-.59942737E-1</BSTAR><MEAN_MOTION_DOT>-.1342204E-1</MEAN_MOTION_DOT><MEAN_MOTION_DDOT>0</MEAN_MOTION_DDOT></tleParameters></data></segment></body></omm>
<omm id="CCSDS_OMM_VERS" version="2.0">
<header><CREATION_DATE/><ORIGINATOR/></header><body><segment><metadata><OBJECT_NAME>KUIPER-00012</OBJECT_NAME><OBJECT_ID>2025-088E</OBJECT_ID><CENTER_NAME>EARTH</CENTER_NAME><REF_FRAME>TEME</REF_FRAME><TIME_SYSTEM>UTC</TIME_SYSTEM><MEAN_ELEMENT_THEORY>SGP4</MEAN_ELEMENT_THEORY></metadata><data><meanElements><EPOCH>2025-08-31T05:32:40.310304</EPOCH><MEAN_MOTION>15.36681140</MEAN_MOTION><ECCENTRICITY>.00096613</ECCENTRICITY><INCLINATION>51.8548</INCLINATION><RA_OF_ASC_NODE>218.7924</RA_OF_ASC_NODE><ARG_OF_PERICENTER>200.2172</ARG_OF_PERICENTER><MEAN_ANOMALY>159.8433</MEAN_ANOMALY></meanElements><tleParameters><EPHEMERIS_TYPE>0</EPHEMERIS_TYPE><CLASSIFICATION_TYPE>U</CLASSIFICATION_TYPE><NORAD_CAT_ID>63728</NORAD_CAT_ID><ELEMENT_SET_NO>999</ELEMENT_SET_NO><REV_AT_EPOCH>1942</REV_AT_EPOCH><BSTAR>.72287445E-3</BSTAR><MEAN_MOTION_DOT>.26037E-3</MEAN_MOTION_DOT><MEAN_MOTION_DDOT>0</MEAN_MOTION_DDOT></tleParameters></data></segment></body></omm>
<omm id="CCSDS_OMM_VERS" version="2.0">
<header><CREATION_DATE/><ORIGINATOR/></header><body><segment><metadata><OBJECT_NAME>KUIPER-00013</OBJECT_NAME><OBJECT_ID>2025-088F</OBJECT_ID><CENTER_NAME>EARTH</CENTER_NAME><REF_FRAME>TEME</REF_FRAME><TIME_SYSTEM>UTC</TIME_SYSTEM><MEAN_ELEMENT_THEORY>SGP4</MEAN_ELEMENT_THEORY></metadata><data><meanElements><EPOCH>2025-08-31T05:03:43.908768</EPOCH><MEAN_MOTION>14.79423606</MEAN_MOTION><ECCENTRICITY>.00085349</ECCENTRICITY><INCLINATION>51.9014</INCLINATION><RA_OF_ASC_NODE>230.3430</RA_OF_ASC_NODE><ARG_OF_PERICENTER>129.1716</ARG_OF_PERICENTER><MEAN_ANOMALY>231.0006</MEAN_ANOMALY></meanElements><tleParameters><EPHEMERIS_TYPE>0</EPHEMERIS_TYPE><CLASSIFICATION_TYPE>U</CLASSIFICATION_TYPE><NORAD_CAT_ID>63729</NORAD_CAT_ID><ELEMENT_SET_NO>999</ELEMENT_SET_NO><REV_AT_EPOCH>1936</REV_AT_EPOCH><BSTAR>-.75482843E-2</BSTAR><MEAN_MOTION_DOT>-.56635E-3</MEAN_MOTION_DOT><MEAN_MOTION_DDOT>0</MEAN_MOTION_DDOT></tleParameters></data></segment></body></omm>
<omm id="CCSDS_OMM_VERS" version="2.0">
<header><CREATION_DATE/><ORIGINATOR/></header><body><segment><metadata><OBJECT_NAME>KUIPER-00014</OBJECT_NAME><OBJECT_ID>2025-088G</OBJECT_ID><CENTER_NAME>EARTH</CENTER_NAME><REF_FRAME>TEME</REF_FRAME><TIME_SYSTEM>UTC</TIME_SYSTEM><MEAN_ELEMENT_THEORY>SGP4</MEAN_ELEMENT_THEORY></metadata><data><meanElements><EPOCH>2025-08-31T06:41:48.719040</EPOCH><MEAN_MOTION>14.79846853</MEAN_MOTION><ECCENTRICITY>.00081383</ECCENTRICITY><INCLINATION>51.9012</INCLINATION><RA_OF_ASC_NODE>231.0280</RA_OF_ASC_NODE><ARG_OF_PERICENTER>179.0699</ARG_OF_PERICENTER><MEAN_ANOMALY>181.0279</MEAN_ANOMALY></meanElements><tleParameters><EPHEMERIS_TYPE>0</EPHEMERIS_TYPE><CLASSIFICATION_TYPE>U</CLASSIFICATION_TYPE><NORAD_CAT_ID>63730</NORAD_CAT_ID><ELEMENT_SET_NO>999</ELEMENT_SET_NO><REV_AT_EPOCH>1917</REV_AT_EPOCH><BSTAR>.31841599E-3</BSTAR><MEAN_MOTION_DOT>.2201E-4</MEAN_MOTION_DOT><MEAN_MOTION_DDOT>0</MEAN_MOTION_DDOT></tleParameters></data></segment></body></omm>
<omm id="CCSDS_OMM_VERS" version="2.0">
<header><CREATION_DATE/><ORIGINATOR/></header><body><segment><metadata><OBJECT_NAME>KUIPER-00015</OBJECT_NAME><OBJECT_ID>2025-088H</OBJECT_ID><CENTER_NAME>EARTH</CENTER_NAME><REF_FRAME>TEME</REF_FRAME><TIME_SYSTEM>UTC</TIME_SYSTEM><MEAN_ELEMENT_THEORY>SGP4</MEAN_ELEMENT_THEORY></metadata><data><meanElements><EPOCH>2025-08-31T07:08:32.657280</EPOCH><MEAN_MOTION>14.81226633</MEAN_MOTION><ECCENTRICITY>.00105037</ECCENTRICITY><INCLINATION>51.8985</INCLINATION><RA_OF_ASC_NODE>243.1412</RA_OF_ASC_NODE><ARG_OF_PERICENTER>167.0363</ARG_OF_PERICENTER><MEAN_ANOMALY>193.0872</MEAN_ANOMALY></meanElements><tleParameters><EPHEMERIS_TYPE>0</EPHEMERIS_TYPE><CLASSIFICATION_TYPE>U</CLASSIFICATION_TYPE><NORAD_CAT_ID>63731</NORAD_CAT_ID><ELEMENT_SET_NO>999</ELEMENT_SET_NO><REV_AT_EPOCH>1946</REV_AT_EPOCH><BSTAR>.14587717E-3</BSTAR><MEAN_MOTION_DOT>.922E-5</MEAN_MOTION_DOT><MEAN_MOTION_DDOT>0</MEAN_MOTION_DDOT></tleParameters></data></segment></body></omm>

</ndm>
